[
    {
        "CCSDS_OMM_VERS": "3.0",
        "COMMENT": "GENERATED VIA SPACE-TRACK.ORG API",
        "CREATION_DATE": "2025-03-02T18:08:23",
        "ORIGINATOR": "18 SPCS",
        "OBJECT_NAME": "BEIDOU 3 M26",
        "OBJECT_ID": "2023-207B",
        "CENTER_NAME": "EARTH",
        "REF_FRAME": "TEME",
        "TIME_SYSTEM": "UTC",
        "MEAN_ELEMENT_THEORY": "SGP4",
        "EPOCH": "2025-03-02T02:44:43.396224",
        "MEAN_MOTION": "1.86231411",
        "ECCENTRICITY": "0.00056300",
        "INCLINATION": "55.3322",
        "RA_OF_ASC_NODE": "78.2672",
        "ARG_OF_PERICENTER": "276.4798",
        "MEAN_ANOMALY": "83.5076",
        "EPHEMERIS_TYPE": "0",
        "CLASSIFICATION_TYPE": "U",
        "NORAD_CAT_ID": "58655",
        "ELEMENT_SET_NO": "999",
        "REV_AT_EPOCH": "803",
        "BSTAR": "0.00000000000000",
        "MEAN_MOTION_DOT": "0.00000009",
        "MEAN_MOTION_DDOT": "0.0000000000000",
        "SEMIMAJOR_AXIS": "27906.148",
        "PERIOD": "773.232",
        "APOAPSIS": "21543.724",
        "PERIAPSIS": "21512.301",
        "OBJECT_TYPE": "PAYLOAD",
        "RCS_SIZE": "LARGE",
        "COUNTRY_CODE": "PRC",
        "LAUNCH_DATE": "2023-12-26",
        "SITE": "XSC",
        "DECAY_DATE": null,
        "FILE": "4657142",
        "GP_ID": "282096738",
        "TLE_LINE0": "0 BEIDOU 3 M26",
        "TLE_LINE1": "1 58655U 23207B   25061.11439116  .00000009  00000-0  00000-0 0  9992",
        "TLE_LINE2": "2 58655  55.3322  78.2672 0005630 276.4798  83.5076  1.86231411  8037"
    }
]